CTC1_L_00160001-01
1 10000U 26876LI  26075.70031250  .00000000  00000+0  00000-0 0  9997
2 10000  55.0000   0.0000 0000000   0.0000   0.0000 13.98210060    14
CTC1_L_00160001-02
1 10001U 26471UY  26075.70031250  .00000000  00000+0  00000-0 0  9999
2 10001  55.0000   0.0000 0000000   0.0000  90.0000 13.98210060    14
CTC1_L_00160001-03
1 10002U 24197JT  26075.70031250  .00000000  00000+0  00000-0 0  9993
2 10002  55.0000   0.0000 0000000   0.0000 180.0000 13.98210060    15
CTC1_L_00160001-04
1 10003U 22132NE  26075.70031250  .00000000  00000+0  00000-0 0  9991
2 10003  55.0000   0.0000 0000000   0.0000 270.0000 13.98210060    16
CTC1_L_00160002-01
1 10004U 23629ZJ  26075.70031250  .00000000  00000+0  00000-0 0  9994
2 10004  55.0000  12.0000 0000000   0.0000  12.0000 13.98210060    14
CTC1_L_00160002-02
1 10005U 24421OC  26075.70031250  .00000000  00000+0  00000-0 0  9996
2 10005  55.0000  12.0000 0000000   0.0000 102.0000 13.98210060    15
CTC1_L_00160002-03
1 10006U 24844NK  26075.70031250  .00000000  00000+0  00000-0 0  9996
2 10006  55.0000  12.0000 0000000   0.0000 192.0000 13.98210060    15
CTC1_L_00160002-04
1 10007U 25645AY  26075.70031250  .00000000  00000+0  00000-0 0  9997
2 10007  55.0000  12.0000 0000000   0.0000 282.0000 13.98210060    16
CTC1_L_00160003-01
1 10008U 22819YW  26075.70031250  .00000000  00000+0  00000-0 0  9998
2 10008  55.0000  24.0000 0000000   0.0000  24.0000 13.98210060    14
CTC1_L_00160003-02
1 10009U 25364NR  26075.70031250  .00000000  00000+0  00000-0 0  9997
2 10009  55.0000  24.0000 0000000   0.0000 114.0000 13.98210060    15
CTC1_L_00160003-03
1 10010U 22861FE  26075.70031250  .00000000  00000+0  00000-0 0  9998
2 10010  55.0000  24.0000 0000000   0.0000 204.0000 13.98210060    17
CTC1_L_00160003-04
1 10011U 22225XU  26075.70031250  .00000000  00000+0  00000-0 0  9993
2 10011  55.0000  24.0000 0000000   0.0000 294.0000 13.98210060    17
CTC1_L_00160004-01
1 10012U 26310RV  26075.70031250  .00000000  00000+0  00000-0 0  9993
2 10012  55.0000  36.0000 0000000   0.0000  36.0000 13.98210060    15
CTC1_L_00160004-02
1 10013U 26622PZ  26075.70031250  .00000000  00000+0  00000-0 0  9990
2 10013  55.0000  36.0000 0000000   0.0000 126.0000 13.98210060    16
CTC1_L_00160004-03
1 10014U 25258MF  26075.70031250  .00000000  00000+0  00000-0 0  9995
2 10014  55.0000  36.0000 0000000   0.0000 216.0000 13.98210060    17
CTC1_L_00160004-04
1 10015U 26409JK  26075.70031250  .00000000  00000+0  00000-0 0  9995
2 10015  55.0000  36.0000 0000000   0.0000 306.0000 13.98210060    18
CTC1_L_00160005-01
1 10016U 22607WD  26075.70031250  .00000000  00000+0  00000-0 0  9992
2 10016  55.0000  48.0000 0000000   0.0000  48.0000 13.98210060    15
CTC1_L_00160005-02
1 10017U 23130QP  26075.70031250  .00000000  00000+0  00000-0 0  9995
2 10017  55.0000  48.0000 0000000   0.0000 138.0000 13.98210060    16
CTC1_L_00160005-03
1 10018U 26225VA  26075.70031250  .00000000  00000+0  00000-0 0  9994
2 10018  55.0000  48.0000 0000000   0.0000 228.0000 13.98210060    17
CTC1_L_00160005-04
1 10019U 22674JP  26075.70031250  .00000000  00000+0  00000-0 0  9999
2 10019  55.0000  48.0000 0000000   0.0000 318.0000 13.98210060    18
CTC1_L_00160006-01
1 10020U 23308TC  26075.70031250  .00000000  00000+0  00000-0 0  9996
2 10020  55.0000  60.0000 0000000   0.0000  60.0000 13.98210060    18
CTC1_L_00160006-02
1 10021U 25215J   26075.70031250  .00000000  00000+0  00000-0 0  9996
2 10021  55.0000  60.0000 0000000   0.0000 150.0000 13.98210060    19
CTC1_L_00160006-03
1 10022U 25074RF  26075.70031250  .00000000  00000+0  00000-0 0  9990
2 10022  55.0000  60.0000 0000000   0.0000 240.0000 13.98210060    10
CTC1_L_00160006-04
1 10023U 23576WE  26075.70031250  .00000000  00000+0  00000-0 0  9996
2 10023  55.0000  60.0000 0000000   0.0000 330.0000 13.98210060    11
CTC1_L_00160007-01
1 10024U 25155BK  26075.70031250  .00000000  00000+0  00000-0 0  9992
2 10024  55.0000  72.0000 0000000   0.0000  72.0000 13.98210060    18
CTC1_L_00160007-02
1 10025U 25417RV  26075.70031250  .00000000  00000+0  00000-0 0  9994
2 10025  55.0000  72.0000 0000000   0.0000 162.0000 13.98210060    19
CTC1_L_00160007-03
1 10026U 26164CI  26075.70031250  .00000000  00000+0  00000-0 0  9995
2 10026  55.0000  72.0000 0000000   0.0000 252.0000 13.98210060    10
CTC1_L_00160007-04
1 10027U 26994QV  26075.70031250  .00000000  00000+0  00000-0 0  9997
2 10027  55.0000  72.0000 0000000   0.0000 342.0000 13.98210060    11
CTC1_L_00160008-01
1 10028U 25784KR  26075.70031250  .00000000  00000+0  00000-0 0  9994
2 10028  55.0000  84.0000 0000000   0.0000  84.0000 13.98210060    18
CTC1_L_00160008-02
1 10029U 24423RB  26075.70031250  .00000000  00000+0  00000-0 0  9994
2 10029  55.0000  84.0000 0000000   0.0000 174.0000 13.98210060    19
CTC1_L_00160008-03
1 10030U 25796TH  26075.70031250  .00000000  00000+0  00000-0 0  9990
2 10030  55.0000  84.0000 0000000   0.0000 264.0000 13.98210060    11
CTC1_L_00160008-04
1 10031U 23875I   26075.70031250  .00000000  00000+0  00000-0 0  9997
2 10031  55.0000  84.0000 0000000   0.0000 354.0000 13.98210060    12
CTC1_L_00160009-01
1 10032U 26850UR  26075.70031250  .00000000  00000+0  00000-0 0  9994
2 10032  55.0000  96.0000 0000000   0.0000  96.0000 13.98210060    19
CTC1_L_00160009-02
1 10033U 22568HC  26075.70031250  .00000000  00000+0  00000-0 0  9997
2 10033  55.0000  96.0000 0000000   0.0000 186.0000 13.98210060    10
CTC1_L_00160009-03
1 10034U 26383WF  26075.70031250  .00000000  00000+0  00000-0 0  9997
2 10034  55.0000  96.0000 0000000   0.0000 276.0000 13.98210060    11
CTC1_L_00160009-04
1 10035U 24030YD  26075.70031250  .00000000  00000+0  00000-0 0  9995
2 10035  55.0000  96.0000 0000000   0.0000   6.0000 13.98210060    13
CTC1_L_00160010-01
1 10036U 24483SI  26075.70031250  .00000000  00000+0  00000-0 0  9998
2 10036  55.0000 108.0000 0000000   0.0000 108.0000 13.98210060    11
CTC1_L_00160010-02
1 10037U 23773MC  26075.70031250  .00000000  00000+0  00000-0 0  9990
2 10037  55.0000 108.0000 0000000   0.0000 198.0000 13.98210060    11
CTC1_L_00160010-03
1 10038U 26632VE  26075.70031250  .00000000  00000+0  00000-0 0  9998
2 10038  55.0000 108.0000 0000000   0.0000 288.0000 13.98210060    12
CTC1_L_00160010-04
1 10039U 24749RA  26075.70031250  .00000000  00000+0  00000-0 0  9996
2 10039  55.0000 108.0000 0000000   0.0000  18.0000 13.98210060    14
CTC1_L_00160011-01
1 10040U 26146LX  26075.70031250  .00000000  00000+0  00000-0 0  9991
2 10040  55.0000 120.0000 0000000   0.0000 120.0000 13.98210060    14
CTC1_L_00160011-02
1 10041U 24692SP  26075.70031250  .00000000  00000+0  00000-0 0  9996
2 10041  55.0000 120.0000 0000000   0.0000 210.0000 13.98210060    15
CTC1_L_00160011-03
1 10042U 25259VO  26075.70031250  .00000000  00000+0  00000-0 0  9997
2 10042  55.0000 120.0000 0000000   0.0000 300.0000 13.98210060    16
CTC1_L_00160011-04
1 10043U 22177HT  26075.70031250  .00000000  00000+0  00000-0 0  9994
2 10043  55.0000 120.0000 0000000   0.0000  30.0000 13.98210060    17
CTC1_L_00160012-01
1 10044U 24392PF  26075.70031250  .00000000  00000+0  00000-0 0  9996
2 10044  55.0000 132.0000 0000000   0.0000 132.0000 13.98210060    14
CTC1_L_00160012-02
1 10045U 24043N   26075.70031250  .00000000  00000+0  00000-0 0  9990
2 10045  55.0000 132.0000 0000000   0.0000 222.0000 13.98210060    15
CTC1_L_00160012-03
1 10046U 26756CK  26075.70031250  .00000000  00000+0  00000-0 0  9994
2 10046  55.0000 132.0000 0000000   0.0000 312.0000 13.98210060    16
CTC1_L_00160012-04
1 10047U 23443ZJ  26075.70031250  .00000000  00000+0  00000-0 0  9995
2 10047  55.0000 132.0000 0000000   0.0000  42.0000 13.98210060    17
CTC1_L_00160013-01
1 10048U 25538TE  26075.70031250  .00000000  00000+0  00000-0 0  9993
2 10048  55.0000 144.0000 0000000   0.0000 144.0000 13.98210060    14
CTC1_L_00160013-02
1 10049U 22368GD  26075.70031250  .00000000  00000+0  00000-0 0  9992
2 10049  55.0000 144.0000 0000000   0.0000 234.0000 13.98210060    15
CTC1_L_00160013-03
1 10050U 23403BD  26075.70031250  .00000000  00000+0  00000-0 0  9995
2 10050  55.0000 144.0000 0000000   0.0000 324.0000 13.98210060    17
CTC1_L_00160013-04
1 10051U 23746ZN  26075.70031250  .00000000  00000+0  00000-0 0  9996
2 10051  55.0000 144.0000 0000000   0.0000  54.0000 13.98210060    18
CTC1_L_00160014-01
1 10052U 25228HG  26075.70031250  .00000000  00000+0  00000-0 0  9994
2 10052  55.0000 156.0000 0000000   0.0000 156.0000 13.98210060    15
CTC1_L_00160014-02
1 10053U 25123CE  26075.70031250  .00000000  00000+0  00000-0 0  9999
2 10053  55.0000 156.0000 0000000   0.0000 246.0000 13.98210060    16
CTC1_L_00160014-03
1 10054U 22248ER  26075.70031250  .00000000  00000+0  00000-0 0  9995
2 10054  55.0000 156.0000 0000000   0.0000 336.0000 13.98210060    17
CTC1_L_00160014-04
1 10055U 25087JR  26075.70031250  .00000000  00000+0  00000-0 0  9990
2 10055  55.0000 156.0000 0000000   0.0000  66.0000 13.98210060    18
CTC1_L_00160015-01
1 10056U 22804WP  26075.70031250  .00000000  00000+0  00000-0 0  9995
2 10056  55.0000 168.0000 0000000   0.0000 168.0000 13.98210060    15
CTC1_L_00160015-02
1 10057U 23902PC  26075.70031250  .00000000  00000+0  00000-0 0  9996
2 10057  55.0000 168.0000 0000000   0.0000 258.0000 13.98210060    16
CTC1_L_00160015-03
1 10058U 23748OR  26075.70031250  .00000000  00000+0  00000-0 0  9995
2 10058  55.0000 168.0000 0000000   0.0000 348.0000 13.98210060    17
CTC1_L_00160015-04
1 10059U 25829D   26075.70031250  .00000000  00000+0  00000-0 0  9998
2 10059  55.0000 168.0000 0000000   0.0000  78.0000 13.98210060    18
CTC1_L_00160016-01
1 10060U 22477HP  26075.70031250  .00000000  00000+0  00000-0 0  9996
2 10060  55.0000 180.0000 0000000   0.0000 180.0000 13.98210060    18
CTC1_L_00160016-02
1 10061U 25543KW  26075.70031250  .00000000  00000+0  00000-0 0  9994
2 10061  55.0000 180.0000 0000000   0.0000 270.0000 13.98210060    19
